[{"OBJECT_NAME":"STARLINK-6336","OBJECT_ID":"2023-078X","EPOCH":"2026-03-09T21:29:58.591392","MEAN_MOTION":14.98326686,"ECCENTRICITY":0.00027955,"INCLINATION":70,"RA_OF_ASC_NODE":323.9674,"ARG_OF_PERICENTER":270.6387,"MEAN_ANOMALY":89.4452,"EPHEMERIS_TYPE":0,"CLASSIFICATION_TYPE":"U","NORAD_CAT_ID":56788,"ELEMENT_SET_NO":999,"REV_AT_EPOCH":15320,"BSTAR":-6.2157875e-5,"MEAN_MOTION_DOT":-8.34e-6,"MEAN_MOTION_DDOT":0},{"OBJECT_NAME":"FENGYUN 1C DEB","OBJECT_ID":"1999-025MT","EPOCH":"2026-03-09T21:02:02.442624","MEAN_MOTION":14.74130884,"ECCENTRICITY":0.01136959,"INCLINATION":98.7454,"RA_OF_ASC_NODE":163.3635,"ARG_OF_PERICENTER":282.2255,"MEAN_ANOMALY":202.4233,"EPHEMERIS_TYPE":0,"CLASSIFICATION_TYPE":"U","NORAD_CAT_ID":30018,"ELEMENT_SET_NO":999,"REV_AT_EPOCH":1720,"BSTAR":0.00065605178,"MEAN_MOTION_DOT":4.733e-5,"MEAN_MOTION_DDOT":0}]
